{"type": "FeatureCollection", "features": [ {"type": "Feature", "properties": {"norad_id": 37054, "name": "FENGYUN 1C DEB", "group": "fengyun-1c-debris", "lat": -62.39193114615069, "lon": 0.14668949369389528, "alt_km": 877.1603913643066, "timestamp": "2025-12-27T11:23:20.186440+00:00", "meta": {"OBJECT_NAME": "FENGYUN 1C DEB", "OBJECT_ID": "1999-025EEN", "EPOCH": "2025-12-18T04:22:47.839296", "MEAN_MOTION": 14.19457855, "ECCENTRICITY": 0.01012295, "INCLINATION": 98.5505, "RA_OF_ASC_NODE": 334.4558, "ARG_OF_PERICENTER": 89.7023, "MEAN_ANOMALY": 271.5753, "EPHEMERIS_TYPE": 0, "CLASSIFICATION_TYPE": "U", "NORAD_CAT_ID": 37054, "ELEMENT_SET_NO": 999, "REV_AT_EPOCH": 64506, "BSTAR": 0.00022919283, "MEAN_MOTION_DOT": 4.67e-06, "MEAN_MOTION_DDOT": 0}, "tle": {"line1": "1 37054U 99025EEN 25352.18249814  .00000467  00000+0  22919-3 0  9990", "line2": "2 37054  98.5505 334.4558 0101229  89.7023 271.5753 14.19457855645069"}}, "geometry": {"type": "Point", "coordinates": [0.14668949369389528, -62.39193114615069]}}, {"type": "Feature", "properties": {"norad_id": 37056, "name": "FENGYUN 1C DEB", "group": "fengyun-1c-debris", "lat": -32.98442369262699, "lon": 30.645627759549, "alt_km": 862.689588759491, "timestamp": "2025-12-27T11:23:20.186450+00:00", "meta": {"OBJECT_NAME": "FENGYUN 1C DEB", "OBJECT_ID": "1999-025EEQ", "EPOCH": "2025-12-26T18:59:27.345408", "MEAN_MOTION": 14.50496553, "ECCENTRICITY": 0.02690124, "INCLINATION": 98.9812, "RA_OF_ASC_NODE": 24.0248, "ARG_OF_PERICENTER": 103.7337, "MEAN_ANOMALY": 259.3953, "EPHEMERIS_TYPE": 0, "CLASSIFICATION_TYPE": "U", "NORAD_CAT_ID": 37056, "ELEMENT_SET_NO": 999, "REV_AT_EPOCH": 65615, "BSTAR": 0.00029159915, "MEAN_MOTION_DOT": 1.759e-05, "MEAN_MOTION_DDOT": 0}, "tle": {"line1": "1 37056U 99025EEQ 25360.79128872  .00001759  00000+0  29160-3 0  9998", "line2": "2 37056  98.9812  24.0248 0269012 103.7337 259.3953 14.50496553656155"}}, "geometry": {"type": "Point", "coordinates": [30.645627759549, -32.98442369262699]}}, {"type": "Feature", "properties": {"norad_id": 37057, "name": "FENGYUN 1C DEB", "group": "fengyun-1c-debris", "lat": 79.13880959699283, "lon": -39.10393554586327, "alt_km": 698.7659303385717, "timestamp": "2025-12-27T11:23:20.186459+00:00", "meta": {"OBJECT_NAME": "FENGYUN 1C DEB", "OBJECT_ID": "1999-025EER", "EPOCH": "2025-12-19T18:57:33.353568", "MEAN_MOTION": 13.96116671, "ECCENTRICITY": 0.02853199, "INCLINATION": 98.9208, "RA_OF_ASC_NODE": 8.387, "ARG_OF_PERICENTER": 120.0686, "MEAN_ANOMALY": 242.91, "EPHEMERIS_TYPE": 0, "CLASSIFICATION_TYPE": "U", "NORAD_CAT_ID": 37057, "ELEMENT_SET_NO": 999, "REV_AT_EPOCH": 63696, "BSTAR": 7.2468399e-05, "MEAN_MOTION_DOT": 9.9e-07, "MEAN_MOTION_DDOT": 0}, "tle": {"line1": "1 37057U 99025EER 25353.78996937  .00000099  00000+0  72468-4 0  9991", "line2": "2 37057  98.9208   8.3870 0285319 120.0686 242.9100 13.96116671636966"}}, "geometry": {"type": "Point", "coordinates": [-39.10393554586327, 79.13880959699283]}}, {"type": "Feature", "properties": {"norad_id": 37061, "name": "FENGYUN 1C DEB", "group": "fengyun-1c-debris", "lat": 9.16922655864256, "lon": 61.172766163045864, "alt_km": 728.115158903759, "timestamp": "2025-12-27T11:23:20.186470+00:00", "meta": {"OBJECT_NAME": "FENGYUN 1C DEB", "OBJECT_ID": "1999-025EEV", "EPOCH": "2025-12-26T09:45:30.875040", "MEAN_MOTION": 13.13638059, "ECCENTRICITY": 0.0800883, "INCLINATION": 98.0823, "RA_OF_ASC_NODE": 61.6627, "ARG_OF_PERICENTER": 331.6918, "MEAN_ANOMALY": 24.2786, "EPHEMERIS_TYPE": 0, "CLASSIFICATION_TYPE": "U", "NORAD_CAT_ID": 37061, "ELEMENT_SET_NO": 999, "REV_AT_EPOCH": 8335, "BSTAR": 0.0027336, "MEAN_MOTION_DOT": 5.286e-05, "MEAN_MOTION_DDOT": 0}, "tle": {"line1": "1 37061U 99025EEV 25360.40660735  .00005286  00000+0  27336-2 0  9992", "line2": "2 37061  98.0823  61.6627 0800883 331.6918  24.2786 13.13638059 83352"}}, "geometry": {"type": "Point", "coordinates": [61.172766163045864, 9.16922655864256]}}, {"type": "Feature", "properties": {"norad_id": 37065, "name": "FENGYUN 1C DEB", "group": "fengyun-1c-debris", "lat": 54.65448006461185, "lon": 161.98218645809288, "alt_km": 1230.355634687966, "timestamp": "2025-12-27T11:23:20.186480+00:00", "meta": {"OBJECT_NAME": "FENGYUN 1C DEB", "OBJECT_ID": "1999-025EEZ", "EPOCH": "2025-12-13T18:30:23.335488", "MEAN_MOTION": 13.59126537, "ECCENTRICITY": 0.02987556, "INCLINATION": 103.2861, "RA_OF_ASC_NODE": 162.9273, "ARG_OF_PERICENTER": 240.3853, "MEAN_ANOMALY": 116.7203, "EPHEMERIS_TYPE": 0, "CLASSIFICATION_TYPE": "U", "NORAD_CAT_ID": 37065, "ELEMENT_SET_NO": 999, "REV_AT_EPOCH": 22216, "BSTAR": 0.0032978969, "MEAN_MOTION_DOT": 3.181e-05, "MEAN_MOTION_DDOT": 0}, "tle": {"line1": "1 37065U 99025EEZ 25347.77110342  .00003181  00000+0  32979-2 0  9996", "line2": "2 37065 103.2861 162.9273 0298755 240.3853 116.7203 13.59126537222160"}}, "geometry": {"type": "Point", "coordinates": [161.98218645809288, 54.65448006461185]}}, {"type": "Feature", "properties": {"norad_id": 37067, "name": "FENGYUN 1C DEB", "group": "fengyun-1c-debris", "lat": -58.8676522179587, "lon": 107.50254114670936, "alt_km": 1010.9154568895874, "timestamp": "2025-12-27T11:23:20.186490+00:00", "meta": {"OBJECT_NAME": "FENGYUN 1C DEB", "OBJECT_ID": "1999-025EFB", "EPOCH": "2025-12-22T18:48:08.678592", "MEAN_MOTION": 14.00413613, "ECCENTRICITY": 0.01569364, "INCLINATION": 99.539, "RA_OF_ASC_NODE": 298.7728, "ARG_OF_PERICENTER": 84.4124, "MEAN_ANOMALY": 277.4913, "EPHEMERIS_TYPE": 0, "CLASSIFICATION_TYPE": "U", "NORAD_CAT_ID": 37067, "ELEMENT_SET_NO": 999, "REV_AT_EPOCH": 57549, "BSTAR": 0.0037911676, "MEAN_MOTION_DOT": 6.209e-05, "MEAN_MOTION_DDOT": 0}, "tle": {"line1": "1 37067U 99025EFB 25356.78343378  .00006209  00000+0  37912-2 0  9992", "line2": "2 37067  99.5390 298.7728 0156936  84.4124 277.4913 14.00413613575492"}}, "geometry": {"type": "Point", "coordinates": [107.50254114670936, -58.8676522179587]}}, {"type": "Feature", "properties": {"norad_id": 37069, "name": "FENGYUN 1C DEB", "group": "fengyun-1c-debris", "lat": 53.602921626795066, "lon": -42.331702122478916, "alt_km": 1413.0131021670195, "timestamp": "2025-12-27T11:23:20.186500+00:00", "meta": {"OBJECT_NAME": "FENGYUN 1C DEB", "OBJECT_ID": "1999-025EFD", "EPOCH": "2025-12-26T15:21:19.021536", "MEAN_MOTION": 13.38018946, "ECCENTRICITY": 0.04228912, "INCLINATION": 95.8487, "RA_OF_ASC_NODE": 325.1775, "ARG_OF_PERICENTER": 219.007, "MEAN_ANOMALY": 137.9858, "EPHEMERIS_TYPE": 0, "CLASSIFICATION_TYPE": "U", "NORAD_CAT_ID": 37069, "ELEMENT_SET_NO": 999, "REV_AT_EPOCH": 87894, "BSTAR": 0.0014486319, "MEAN_MOTION_DOT": 1.264e-05, "MEAN_MOTION_DDOT": 0}, "tle": {"line1": "1 37069U 99025EFD 25360.63980349  .00001264  00000+0  14486-2 0  9995", "line2": "2 37069  95.8487 325.1775 0422891 219.0070 137.9858 13.38018946878943"}}, "geometry": {"type": "Point", "coordinates": [-42.331702122478916, 53.602921626795066]}}, {"type": "Feature", "properties": {"norad_id": 37077, "name": "FENGYUN 1C DEB", "group": "fengyun-1c-debris", "lat": 52.14341994082791, "lon": 65.63416101903142, "alt_km": 791.0009453431985, "timestamp": "2025-12-27T11:23:20.186510+00:00", "meta": {"OBJECT_NAME": "FENGYUN 1C DEB", "OBJECT_ID": "1999-025EFM", "EPOCH": "2025-12-24T23:09:34.944192", "MEAN_MOTION": 14.41222294, "ECCENTRICITY": 0.00948197, "INCLINATION": 99.0343, "RA_OF_ASC_NODE": 74.7944, "ARG_OF_PERICENTER": 292.3292, "MEAN_ANOMALY": 66.7866, "EPHEMERIS_TYPE": 0, "CLASSIFICATION_TYPE": "U", "NORAD_CAT_ID": 37077, "ELEMENT_SET_NO": 999, "REV_AT_EPOCH": 85131, "BSTAR": 0.00035268117, "MEAN_MOTION_DOT": 1.148e-05, "MEAN_MOTION_DDOT": 0}, "tle": {"line1": "1 37077U 99025EFM 25358.96498778  .00001148  00000+0  35268-3 0  9990", "line2": "2 37077  99.0343  74.7944 0094819 292.3292  66.7866 14.41222294851317"}}, "geometry": {"type": "Point", "coordinates": [65.63416101903142, 52.14341994082791]}}, {"type": "Feature", "properties": {"norad_id": 37079, "name": "FENGYUN 1C DEB", "group": "fengyun-1c-debris", "lat": -1.3488964812392936, "lon": -42.77785708411165, "alt_km": 694.3307187818682, "timestamp": "2025-12-27T11:23:20.186520+00:00", "meta": {"OBJECT_NAME": "FENGYUN 1C DEB", "OBJECT_ID": "1999-025EFP", "EPOCH": "2025-12-18T02:53:46.135104", "MEAN_MOTION": 14.6004098, "ECCENTRICITY": 0.00113024, "INCLINATION": 98.8569, "RA_OF_ASC_NODE": 127.4448, "ARG_OF_PERICENTER": 127.1954, "MEAN_ANOMALY": 233.0277, "EPHEMERIS_TYPE": 0, "CLASSIFICATION_TYPE": "U", "NORAD_CAT_ID": 37079, "ELEMENT_SET_NO": 999, "REV_AT_EPOCH": 64694, "BSTAR": 0.0027811281, "MEAN_MOTION_DOT": 0.00013341, "MEAN_MOTION_DDOT": 0}, "tle": {"line1": "1 37079U 99025EFP 25352.12067286  .00013341  00000+0  27811-2 0  9992", "line2": "2 37079  98.8569 127.4448 0011302 127.1954 233.0277 14.60040980646944"}}, "geometry": {"type": "Point", "coordinates": [-42.77785708411165, -1.3488964812392936]}}, {"type": "Feature", "properties": {"norad_id": 37081, "name": "FENGYUN 1C DEB", "group": "fengyun-1c-debris", "lat": 80.77428543148447, "lon": 43.92746200078851, "alt_km": 998.7701383583171, "timestamp": "2025-12-27T11:23:20.186530+00:00", "meta": {"OBJECT_NAME": "FENGYUN 1C DEB", "OBJECT_ID": "1999-025EFR", "EPOCH": "2025-12-26T16:16:06.178656", "MEAN_MOTION": 14.14142406, "ECCENTRICITY": 0.02678991, "INCLINATION": 98.7014, "RA_OF_ASC_NODE": 152.6138, "ARG_OF_PERICENTER": 308.1554, "MEAN_ANOMALY": 49.5751, "EPHEMERIS_TYPE": 0, "CLASSIFICATION_TYPE": "U", "NORAD_CAT_ID": 37081, "ELEMENT_SET_NO": 999, "REV_AT_EPOCH": 58771, "BSTAR": 0.0052170505, "MEAN_MOTION_DOT": 0.00014005, "MEAN_MOTION_DDOT": 0}, "tle": {"line1": "1 37081U 99025EFR 25360.67784929  .00014005  00000+0  52171-2 0  9999", "line2": "2 37081  98.7014 152.6138 0267899 308.1554  49.5751 14.14142406587719"}}, "geometry": {"type": "Point", "coordinates": [43.92746200078851, 80.77428543148447]}}]}